{
  "norad_id": 55971,
  "name": "SES-19",
  "history": [
    {
      "epoch": "2026-03-28T17:33:56.809728Z",
      "apogee_km": 35793.93330086341,
      "perigee_km": 35778.49187275773,
      "latitude_deg": 0.03642508493594591,
      "longitude_deg": -134.90230605699958,
      "height_km": 35780.38394064435,
      "semi_major_axis_km": 42164.349586810575,
      "eccentricity": 0.00018311,
      "inclination_deg": 0.0418,
      "raan_deg": 278.1831,
      "arg_perigee_deg": 83.327,
      "mean_anomaly_deg": 313.2142,
      "mean_motion_rev_day": 1.00273149
    },
    {
      "epoch": "2026-03-28T22:41:47.953824Z",
      "apogee_km": 35793.949248486235,
      "perigee_km": 35778.42434446437,
      "latitude_deg": 0.020846962645680818,
      "longitude_deg": -134.87541143416516,
      "height_km": 35778.918792311255,
      "semi_major_axis_km": 42164.323796475306,
      "eccentricity": 0.0001841,
      "inclination_deg": 0.0412,
      "raan_deg": 278.1931,
      "arg_perigee_deg": 83.7814,
      "mean_anomaly_deg": 29.9246,
      "mean_motion_rev_day": 1.00273241
    },
    {
      "epoch": "2026-03-30T05:23:19.716000Z",
      "apogee_km": 35794.192088298325,
      "perigee_km": 35779.30956949024,
      "latitude_deg": -0.035213727094896057,
      "longitude_deg": -134.88016986413308,
      "height_km": 35791.2640034518,
      "semi_major_axis_km": 42164.88782889429,
      "eccentricity": 0.00017648,
      "inclination_deg": 0.0382,
      "raan_deg": 278.1627,
      "arg_perigee_deg": 83.251,
      "mean_anomaly_deg": 132.1206,
      "mean_motion_rev_day": 1.00271229
    },
    {
      "epoch": "2026-03-30T11:52:23.111616Z",
      "apogee_km": 35794.15588409914,
      "perigee_km": 35779.30035881954,
      "latitude_deg": -0.007265805943567497,
      "longitude_deg": -134.91173245742027,
      "height_km": 35791.01069912929,
      "semi_major_axis_km": 42164.86512145934,
      "eccentricity": 0.00017616,
      "inclination_deg": 0.0375,
      "raan_deg": 278.1893,
      "arg_perigee_deg": 82.7945,
      "mean_anomaly_deg": 230.0806,
      "mean_motion_rev_day": 1.0027131
    },
    {
      "epoch": "2026-03-30T17:29:04.983360Z",
      "apogee_km": 35794.116313161554,
      "perigee_km": 35779.28946886228,
      "latitude_deg": 0.03537682146334256,
      "longitude_deg": -134.91169772388852,
      "height_km": 35781.04448144166,
      "semi_major_axis_km": 42164.83989101192,
      "eccentricity": 0.00017582,
      "inclination_deg": 0.0369,
      "raan_deg": 278.1028,
      "arg_perigee_deg": 83.7061,
      "mean_anomaly_deg": 313.6601,
      "mean_motion_rev_day": 1.002714
    },
    {
      "epoch": "2026-03-31T17:26:35.057760Z",
      "apogee_km": 35794.016859307325,
      "perigee_km": 35779.12428459291,
      "latitude_deg": 0.03533299159413864,
      "longitude_deg": -134.91552722757433,
      "height_km": 35781.154332611244,
      "semi_major_axis_km": 42164.707571950115,
      "eccentricity": 0.0001766,
      "inclination_deg": 0.0341,
      "raan_deg": 277.213,
      "arg_perigee_deg": 87.7073,
      "mean_anomaly_deg": 310.9076,
      "mean_motion_rev_day": 1.00271872
    },
    {
      "epoch": "2026-04-01T15:41:29.088096Z",
      "apogee_km": 35793.945500303686,
      "perigee_km": 35778.94334223401,
      "latitude_deg": 0.026513760517931733,
      "longitude_deg": -134.92147058017264,
      "height_km": 35784.29089162996,
      "semi_major_axis_km": 42164.58142126885,
      "eccentricity": 0.0001779,
      "inclination_deg": 0.0316,
      "raan_deg": 277.1601,
      "arg_perigee_deg": 90.7429,
      "mean_anomaly_deg": 282.5653,
      "mean_motion_rev_day": 1.00272322
    },
    {
      "epoch": "2026-04-02T14:43:40.495296Z",
      "apogee_km": 35793.87329434008,
      "perigee_km": 35778.76661270278,
      "latitude_deg": 0.018529921442662793,
      "longitude_deg": -134.92209533877664,
      "height_km": 35786.3385829816,
      "semi_major_axis_km": 42164.45695352143,
      "eccentricity": 0.00017914,
      "inclination_deg": 0.0289,
      "raan_deg": 277.0716,
      "arg_perigee_deg": 93.9001,
      "mean_anomaly_deg": 265.9931,
      "mean_motion_rev_day": 1.00272766
    },
    {
      "epoch": "2026-04-03T17:19:10.466688Z",
      "apogee_km": 35793.79184931917,
      "perigee_km": 35778.57053045262,
      "latitude_deg": 0.03262504539780809,
      "longitude_deg": -134.91668699081131,
      "height_km": 35781.50126603732,
      "semi_major_axis_km": 42164.3181898859,
      "eccentricity": 0.0001805,
      "inclination_deg": 0.0259,
      "raan_deg": 277.4269,
      "arg_perigee_deg": 96.5169,
      "mean_anomaly_deg": 302.9932,
      "mean_motion_rev_day": 1.00273261
    },
    {
      "epoch": "2026-04-04T12:08:39.333120Z",
      "apogee_km": 35793.752746504644,
      "perigee_km": 35778.41340324141,
      "latitude_deg": -0.006124576360353069,
      "longitude_deg": -134.91055852756253,
      "height_km": 35791.13561819964,
      "semi_major_axis_km": 42164.220074873025,
      "eccentricity": 0.0001819,
      "inclination_deg": 0.0238,
      "raan_deg": 277.8253,
      "arg_perigee_deg": 98.4396,
      "mean_anomaly_deg": 223.8204,
      "mean_motion_rev_day": 1.00273611
    },
    {
      "epoch": "2026-04-05T11:06:38.488608Z",
      "apogee_km": 35794.68760755306,
      "perigee_km": 35778.860586523675,
      "latitude_deg": -0.014349904711802529,
      "longitude_deg": -134.912159857195,
      "height_km": 35793.66386147856,
      "semi_major_axis_km": 42164.91109703837,
      "eccentricity": 0.00018768,
      "inclination_deg": 0.0214,
      "raan_deg": 278.8578,
      "arg_perigee_deg": 105.2214,
      "mean_anomaly_deg": 201.4392,
      "mean_motion_rev_day": 1.00271146
    },
    {
      "epoch": "2026-04-05T17:14:17.861856Z",
      "apogee_km": 35794.61380303231,
      "perigee_km": 35778.835711762695,
      "latitude_deg": 0.028106451685244928,
      "longitude_deg": -134.9244414114516,
      "height_km": 35783.0495692767,
      "semi_major_axis_km": 42164.861757397506,
      "eccentricity": 0.0001871,
      "inclination_deg": 0.0208,
      "raan_deg": 279.1927,
      "arg_perigee_deg": 105.037,
      "mean_anomaly_deg": 293.4543,
      "mean_motion_rev_day": 1.00271322
    },
    {
      "epoch": "2026-04-06T04:40:38.933184Z",
      "apogee_km": 35794.566303414766,
      "perigee_km": 35778.767151458094,
      "latitude_deg": -0.024763723284822077,
      "longitude_deg": -134.88509443701574,
      "height_km": 35788.08866129363,
      "semi_major_axis_km": 42164.80372743643,
      "eccentricity": 0.00018735,
      "inclination_deg": 0.0197,
      "raan_deg": 279.7634,
      "arg_perigee_deg": 105.9979,
      "mean_anomaly_deg": 103.9795,
      "mean_motion_rev_day": 1.00271529
    },
    {
      "epoch": "2026-04-07T13:44:01.568832Z",
      "apogee_km": 35794.498206306904,
      "perigee_km": 35778.558276259086,
      "latitude_deg": 0.005807547498955828,
      "longitude_deg": -134.92523953340887,
      "height_km": 35790.1796369248,
      "semi_major_axis_km": 42164.66524128299,
      "eccentricity": 0.00018902,
      "inclination_deg": 0.0164,
      "raan_deg": 280.9312,
      "arg_perigee_deg": 107.4198,
      "mean_anomaly_deg": 238.5921,
      "mean_motion_rev_day": 1.00272023
    },
    {
      "epoch": "2026-04-07T17:09:20.435040Z",
      "apogee_km": 35794.48784046375,
      "perigee_km": 35778.54116926461,
      "latitude_deg": 0.022641389442171537,
      "longitude_deg": -134.92710950815288,
      "height_km": 35783.25045471343,
      "semi_major_axis_km": 42164.65150486418,
      "eccentricity": 0.0001891,
      "inclination_deg": 0.0161,
      "raan_deg": 281.2005,
      "arg_perigee_deg": 107.1806,
      "mean_anomaly_deg": 290.0312,
      "mean_motion_rev_day": 1.00272072
    },
    {
      "epoch": "2026-04-08T15:51:44.713152Z",
      "apogee_km": 35794.392915543736,
      "perigee_km": 35778.45724095189,
      "latitude_deg": 0.016303749967300444,
      "longitude_deg": -134.9271476587634,
      "height_km": 35785.844081299205,
      "semi_major_axis_km": 42164.562078247814,
      "eccentricity": 0.00018897,
      "inclination_deg": 0.0137,
      "raan_deg": 281.2035,
      "arg_perigee_deg": 108.3253,
      "mean_anomaly_deg": 270.4189,
      "mean_motion_rev_day": 1.00272391
    },
    {
      "epoch": "2026-04-09T17:04:28.873920Z",
      "apogee_km": 35793.82257169636,
      "perigee_km": 35778.47477171186,
      "latitude_deg": 0.03775475775275206,
      "longitude_deg": -134.9204591955574,
      "height_km": 35783.12105295703,
      "semi_major_axis_km": 42164.285671704114,
      "eccentricity": 0.000182,
      "inclination_deg": 0.0359,
      "raan_deg": 277.7994,
      "arg_perigee_deg": 112.4155,
      "mean_anomaly_deg": 288.9575,
      "mean_motion_rev_day": 1.00273377
    },
    {
      "epoch": "2026-04-10T04:29:38.722272Z",
      "apogee_km": 35793.71597339175,
      "perigee_km": 35778.520819032055,
      "latitude_deg": -0.03329859823478887,
      "longitude_deg": -134.8778974771024,
      "height_km": 35786.9841303424,
      "semi_major_axis_km": 42164.255396211905,
      "eccentricity": 0.00018019,
      "inclination_deg": 0.0348,
      "raan_deg": 278.0131,
      "arg_perigee_deg": 112.6773,
      "mean_anomaly_deg": 100.2447,
      "mean_motion_rev_day": 1.00273485
    },
    {
      "epoch": "2026-04-11T16:59:18.183840Z",
      "apogee_km": 35793.50950933082,
      "perigee_km": 35778.507506359136,
      "latitude_deg": 0.03455907697578471,
      "longitude_deg": -134.90847766616938,
      "height_km": 35783.10633145739,
      "semi_major_axis_km": 42164.14550784498,
      "eccentricity": 0.0001779,
      "inclination_deg": 0.0314,
      "raan_deg": 278.2914,
      "arg_perigee_deg": 113.1826,
      "mean_anomaly_deg": 288.3851,
      "mean_motion_rev_day": 1.00273877
    },
    {
      "epoch": "2026-04-13T04:11:38.793984Z",
      "apogee_km": 35793.70256240017,
      "perigee_km": 35779.902820937874,
      "latitude_deg": -0.02966821399302805,
      "longitude_deg": -134.86790084864532,
      "height_km": 35788.0220972727,
      "semi_major_axis_km": 42164.939691669024,
      "eccentricity": 0.00016364,
      "inclination_deg": 0.0279,
      "raan_deg": 278.9833,
      "arg_perigee_deg": 106.0792,
      "mean_anomaly_deg": 104.3338,
      "mean_motion_rev_day": 1.00271044
    },
    {
      "epoch": "2026-04-14T16:01:04.180800Z",
      "apogee_km": 35793.65617668085,
      "perigee_km": 35779.9525707344,
      "latitude_deg": 0.028143081525447578,
      "longitude_deg": -134.91240104877141,
      "height_km": 35784.46542659887,
      "semi_major_axis_km": 42164.941373707625,
      "eccentricity": 0.0001625,
      "inclination_deg": 0.0242,
      "raan_deg": 279.9953,
      "arg_perigee_deg": 102.8713,
      "mean_anomaly_deg": 285.3518,
      "mean_motion_rev_day": 1.00271038
    }
  ]
}